{"type":"FeatureCollection","features":[{"type":"Feature",
"properties":{"osm_type": "relation", "osm_id": 15344012, "osm_version": 6, "osm_timestamp": "2024-11-05T18:54:52Z", "name": "პერევი", "name:en": "Perevi", "name:ka": "პერევი", "fetched_at": "2026-09-25T22:23:28+00:00", "source": "https://api.openstreetmap.org/api/0.6/relation/15344012/full", "licence": "ODbL 1.0, (c) OpenStreetMap contributors", "used_as": "source of the hand-made polygon boundaries/perevi_village_handmade.geojson"},
"geometry":{"type":"MultiPolygon","coordinates":[
[
[
[43.5979634,42.3762481],
[43.5972814,42.3754343],
[43.5978231,42.3748154],
[43.5975672,42.3745249],
[43.5972211,42.3738047],
[43.5964767,42.3725426],
[43.5973756,42.3722122],
[43.5983039,42.3715543],
[43.5980381,42.370718],
[43.5987685,42.3704406],
[43.5989497,42.3698879],
[43.5985237,42.3695068],
[43.5992498,42.3683343],
[43.5990252,42.3675797],
[43.5990668,42.3667927],
[43.5992264,42.3658948],
[43.6001564,42.365553],
[43.6008566,42.3655436],
[43.6007499,42.363824],
[43.6015823,42.3632971],
[43.6024821,42.3640778],
[43.6024781,42.3653486],
[43.6022526,42.3657218],
[43.6022158,42.3662941],
[43.6027696,42.3663546],
[43.6028368,42.3665881],
[43.6025436,42.3678375],
[43.60236,42.3684975],
[43.6012226,42.3686269],
[43.6012107,42.3691637],
[43.6011695,42.3699329],
[43.6014179,42.3707056],
[43.6018171,42.3712117],
[43.6020774,42.3714475],
[43.6026546,42.3715441],
[43.6033668,42.3716366],
[43.6048369,42.3713446],
[43.6051797,42.3712765],
[43.6069209,42.371545],
[43.6076906,42.3720219],
[43.6054033,42.3731045],
[43.6054524,42.3738335],
[43.6065204,42.3752576],
[43.6033243,42.3782225],
[43.6024426,42.3776672],
[43.6013467,42.3784504],
[43.6008363,42.3781372],
[43.5988523,42.3763467],
[43.5984905,42.3759936],
[43.5979634,42.3762481]
]
],
[
[
[43.5942066,42.3730965],
[43.591457,42.3729412],
[43.5906819,42.3706434],
[43.5931456,42.3698845],
[43.5949455,42.3696152],
[43.5957732,42.3707298],
[43.5959049,42.3717531],
[43.5956862,42.372863],
[43.5942066,42.3730965]
]
],
[
[
[43.6002555,42.3618284],
[43.5993344,42.3622898],
[43.5985776,42.3621064],
[43.5980683,42.3616556],
[43.59837,42.3614741],
[43.5994803,42.361531],
[43.6002555,42.3618284]
]
],
[
[
[43.5957992,42.3600344],
[43.5972744,42.3610491],
[43.5970277,42.3612711],
[43.5966575,42.3613424],
[43.5961693,42.360954],
[43.5946995,42.3607796],
[43.5940611,42.3604664],
[43.59375,42.3595309],
[43.5929024,42.3590315],
[43.5925537,42.3589126],
[43.5925376,42.3585994],
[43.5930312,42.3584131],
[43.5932511,42.3572913],
[43.5936695,42.3569107],
[43.5945761,42.3573309],
[43.5946566,42.3575886],
[43.5941684,42.3578581],
[43.5948926,42.3589919],
[43.5952789,42.3594992],
[43.5957992,42.3600344]
]
]
]}}]}
