{"type":"FeatureCollection","features":[{"type":"Feature",
"properties":{"hand_made": true, "name": "Perevi village (whole village, hand-made)", "name:ka": "პერევი", "derived_from": [{"osm_type": "relation", "osm_id": 15344012, "osm_version": 6}, {"osm_type": "way", "osm_id": 1167376334, "osm_version": 1}], "method": "Convex hull of OSM relation 15344012 v6 (landuse=residential, place=village, 4 patches) and way 1167376334 v1 (the part mapped inside the South Ossetia line), pushed out by 100 m in the metric_crs of config/clip.json (shapely buffer, quad_segs 8), coordinates rounded to 7 decimals.", "why": "OSM has no administrative boundary for Perevi; the law names the village, and the landuse patches have gaps of up to 418 m and could be split or trimmed by any later edit.", "made_at": "2026-09-26", "licence": "ODbL 1.0, derived from OpenStreetMap, (c) OpenStreetMap contributors"},
"geometry":{"type":"MultiPolygon","coordinates":[
[
[
[43.5972381,42.3549824],
[43.5993276,42.3561578],
[43.5993824,42.3561906],
[43.5998705,42.3564998],
[43.6000593,42.3566502],
[43.6001972,42.3568285],
[43.6088058,42.3716661],
[43.6088843,42.3718576],
[43.6089038,42.3720572],
[43.6088633,42.3722551],
[43.6076931,42.3754908],
[43.6076039,42.3756638],
[43.6074689,42.3758196],
[43.6042728,42.3787846],
[43.6041166,42.3789047],
[43.6039332,42.3790013],
[43.603729,42.3790713],
[43.6035108,42.3791121],
[43.6015332,42.37934],
[43.6012916,42.3793497],
[43.6010521,42.3793238],
[43.6008244,42.3792631],
[43.6006174,42.3791702],
[43.5907277,42.3736609],
[43.5905278,42.3735207],
[43.5903757,42.3733507],
[43.5902792,42.3731596],
[43.5895041,42.3708618],
[43.5894705,42.3707025],
[43.5894757,42.3705412],
[43.5913316,42.3584972],
[43.5914124,42.3582618],
[43.5921259,42.3569537],
[43.5922064,42.3568329],
[43.5923104,42.3567224],
[43.5927288,42.3563418],
[43.5928738,42.3562309],
[43.5930423,42.3561399],
[43.595349,42.3551074],
[43.5954733,42.3550587],
[43.5960017,42.3548803],
[43.5962493,42.3548196],
[43.5965085,42.3547995],
[43.5967677,42.3548208],
[43.5970146,42.3548828],
[43.5972381,42.3549824]
]
]
]}}]}
